ONEWEB-0716             
1 55177U 23004AP  25306.22381990  .00000313  00000+0  77338-3 0  9991
2 55177  87.9133  51.0053 0001807 108.5944 251.5384 13.17649820137694
ONEWEB-0717             
1 55178U 23004AQ  25306.35881934 -.00000121  00000+0 -34359-3 0  9994
2 55178  87.9132  50.9459 0001697  89.9258 270.2068 13.17650676137765
ONEWEB-0719             
1 55179U 23004AR  25306.52081591  .00000117  00000+0  26702-3 0  9991
2 55179  87.9135  50.8962 0001596 108.6165 251.5140 13.17651063137732
ONEWEB-0530             
1 55796U 23029A   25306.42614748 -.00000115  00000+0 -31449-3 0  9992
2 55796  87.9190 319.7102 0001422  82.3750 277.7544 13.20770408131211
ONEWEB-0534             
1 55797U 23029B   25306.48927941  .00000000  00000+0 -31548-4 0  9994
2 55797  87.9183 319.6989 0001855  96.3370 263.7974 13.20771116131229
ONEWEB-0556             
1 55798U 23029C   25306.49558742 -.00000031  00000+0 -10893-3 0  9999
2 55798  87.9188 319.6962 0001350 112.2701 247.8575 13.20770864131221
ONEWEB-0562             
1 55799U 23029D   25306.48295507 -.00000048  00000+0 -15089-3 0  9996
2 55799  87.9183 319.6827 0000907  87.1790 272.9447 13.20773037131224
ONEWEB-0563             
1 55800U 23029E   25306.47664979  .00000065  00000+0  12770-3 0  9992
2 55800  87.9191 319.7094 0001894 101.2177 258.9169 13.20770413131215
